[{"OBJECT_NAME":"STARLINK-4107","OBJECT_ID":"2022-086AX","EPOCH":"2026-03-09T14:03:01.319616","MEAN_MOTION":15.08839066,"ECCENTRICITY":0.0001371,"INCLINATION":53.2173,"RA_OF_ASC_NODE":184.5907,"ARG_OF_PERICENTER":80.5395,"MEAN_ANOMALY":279.5752,"EPHEMERIS_TYPE":0,"CLASSIFICATION_TYPE":"U","NORAD_CAT_ID":53287,"ELEMENT_SET_NO":999,"REV_AT_EPOCH":20117,"BSTAR":3.3589e-5,"MEAN_MOTION_DOT":2.47e-6,"MEAN_MOTION_DDOT":0},{"OBJECT_NAME":"CAPELLA-14 (ACADIA-4)","OBJECT_ID":"2024-066C","EPOCH":"2026-03-09T23:09:20.349504","MEAN_MOTION":15.10553849,"ECCENTRICITY":0.00038755,"INCLINATION":45.6044,"RA_OF_ASC_NODE":58.5628,"ARG_OF_PERICENTER":114.4902,"MEAN_ANOMALY":245.6389,"EPHEMERIS_TYPE":0,"CLASSIFICATION_TYPE":"U","NORAD_CAT_ID":59444,"ELEMENT_SET_NO":999,"REV_AT_EPOCH":9746,"BSTAR":0.0014196844,"MEAN_MOTION_DOT":0.00023618,"MEAN_MOTION_DDOT":0}]
